COMMENT,ORIGINATOR,NORAD_CAT_ID,OBJECT_NAME,OBJECT_TYPE,CLASSIFICATION_TYPE,INTLDES,EPOCH,EPOCH_MICROSECONDS,MEAN_MOTION,ECCENTRICITY,INCLINATION,RA_OF_ASC_NODE,ARG_OF_PERICENTER,MEAN_ANOMALY,EPHEMERIS_TYPE,ELEMENT_SET_NO,REV_AT_EPOCH,BSTAR,MEAN_MOTION_DOT,MEAN_MOTION_DDOT,FILE,TLE_LINE0,TLE_LINE1,TLE_LINE2,OBJECT_ID,OBJECT_NUMBER,SEMIMAJOR_AXIS,PERIOD,APOGEE,PERIGEE,DECAYED
GENERATED VIA SPACETRACK.ORG API,18 SPCS,52365,STARLINK-3874,PAYLOAD,U,22045AL,2022-05-25 19:29:07,69632,15.73229164,0.0001816,53.2152,307.9432,64.2471,295.8736,0,999,663,7.3158e-05,9.671e-05,0,3464394,0 STARLINK-3874,1 52365U 22045AL  22145.81188738  .00009671  00000-0  73158-4 0  9993,2 52365  53.2152 307.9432 0001816  64.2471 295.8736 15.73229164  6634,2022-045AL,52365,6727.812,91.531,350.899,348.455,0
GENERATED VIA SPACETRACK.ORG API,18 SPCS,52365,STARLINK-3874,PAYLOAD,U,22045AL,2022-05-26 06:00:00,999648,15.73180733,0.0001126,53.2135,305.7747,68.8597,254.0398,0,999,669,0.00021337,0.00029405,0,3464900,0 STARLINK-3874,1 52365U 22045AL  22146.25001157  .00029405  00000-0  21337-3 0  9999,2 52365  53.2135 305.7747 0001126  68.8597 254.0398 15.73180733  6698,2022-045AL,52365,6727.95,91.534,350.573,349.058,0
GENERATED VIA SPACETRACK.ORG API,18 SPCS,52365,STARLINK-3874,PAYLOAD,U,22045AL,2022-05-26 14:00:01,224,15.73189058,0.0001184,53.2138,304.1257,64.729,347.0792,0,999,130,-5.808e-05,-8.758e-05,0,3465646,0 STARLINK-3874,1 52365U 22045AL  22146.58334491 -.00008758  00000-0 -58080-4 0  9991,2 52365  53.2138 304.1257 0001184  64.7290 347.0792 15.73189058  1302,2022-045AL,52365,6727.926,91.534,350.588,348.995,0
GENERATED VIA SPACETRACK.ORG API,18 SPCS,52365,STARLINK-3874,PAYLOAD,U,22045AL,2022-05-26 20:00:01,224,15.73183198,0.0001299,53.2138,302.8898,55.268,333.2364,0,999,678,-4.4515e-05,-6.857e-05,0,3466052,0 STARLINK-3874,1 52365U 22045AL  22146.83334491 -.00006857  00000-0 -44515-4 0  9995,2 52365  53.2138 302.8898 0001299  55.2680 333.2364 15.73183198  6781,2022-045AL,52365,6727.943,91.534,350.682,348.934,0
GENERATED VIA SPACETRACK.ORG API,18 SPCS,52365,STARLINK-3874,PAYLOAD,U,22045AL,2022-05-26 22:00:00,999936,15.73159162,0.0001298,53.2135,302.4773,52.6002,88.1386,0,999,130,0.00031921,0.00044337,0,3466271,0 STARLINK-3874,1 52365U 22045AL  22146.91667824  .00044337  00000-0  31921-3 0  9992,2 52365  53.2135 302.4773 0001298  52.6002  88.1386 15.73159162  1301,2022-045AL,52365,6728.012,91.536,350.75,349.003,0
GENERATED VIA SPACETRACK.ORG API,18 SPCS,52365,STARLINK-3874,PAYLOAD,U,22045AL,2022-05-27 14:10:34,381344,15.73207499,0.0001441,53.2144,299.1401,76.3321,283.786,0,999,691,1.6851e-05,1.746e-05,0,3467585,0 STARLINK-3874,1 52365U 22045AL  22147.59067571  .00001746  00000-0  16851-4 0  9993,2 52365  53.2144 299.1401 0001441  76.3321 283.7860 15.73207499  6917,2022-045AL,52365,6727.874,91.533,350.708,348.769,0
GENERATED VIA SPACETRACK.ORG API,18 SPCS,52365,STARLINK-3874,PAYLOAD,U,22045AL,2022-05-27 16:00:00,999936,15.72964991,0.0001194,53.2167,298.7641,71.1563,359.6082,0,999,692,0.0025992,0.00377234,0,3467498,0 STARLINK-3874,1 52365U 22045AL  22147.66667824  .00377234  00000-0  25992-2 0  9990,2 52365  53.2167 298.7641 0001194  71.1563 359.6082 15.72964991  6925,2022-045AL,52365,6728.565,91.547,351.234,349.627,0
GENERATED VIA SPACETRACK.ORG API,18 SPCS,52365,STARLINK-3874,PAYLOAD,U,22045AL,2022-05-27 22:00:01,999584,15.73205464,0.0001053,53.217,297.5277,70.4469,336.9548,0,999,696,-6.9154e-06,-1.59e-05,0,3467920,0 STARLINK-3874,1 52365U 22045AL  22147.91668981 -.00001590  00000-0 -69154-5 0  9995,2 52365  53.2170 297.5277 0001053  70.4469 336.9548 15.73205464  6965,2022-045AL,52365,6727.88,91.533,350.453,349.036,0
GENERATED VIA SPACETRACK.ORG API,18 SPCS,52365,STARLINK-3874,PAYLOAD,U,22045AL,2022-05-28 06:00:02,160,15.7324068,0.0001173,53.2136,295.8763,53.2296,83.3343,0,999,701,-0.00011387,-0.00016597,0,3468562,0 STARLINK-3874,1 52365U 22045AL  22148.25002315 -.00016597  00000-0 -11387-3 0  9992,2 52365  53.2136 295.8763 0001173  53.2296  83.3343 15.73240680  7010,2022-045AL,52365,6727.779,91.531,350.433,348.855,0
GENERATED VIA SPACETRACK.ORG API,18 SPCS,52365,STARLINK-3874,PAYLOAD,U,22045AL,2022-05-28 14:00:01,224,15.73215256,0.0001475,53.214,294.2277,54.6298,170.8292,0,999,130,-0.00024499,-0.00034884,0,3469283,0 STARLINK-3874,1 52365U 22045AL  22148.58334491 -.00034884  00000-0 -24499-3 0  9998,2 52365  53.2140 294.2277 0001475  54.6298 170.8292 15.73215256  1302,2022-045AL,52365,6727.852,91.532,350.709,348.724,0
GENERATED VIA SPACETRACK.ORG API,18 SPCS,52365,STARLINK-3874,PAYLOAD,U,22045AL,2022-05-28 19:08:40,928352,15.73209114,0.0001494,53.2143,293.1661,58.2361,301.8804,0,999,710,2.924e-06,-2.1e-06,0,3469765,0 STARLINK-3874,1 52365U 22045AL  22148.79769593 -.00000210  00000-0  29240-5 0  9992,2 52365  53.2143 293.1661 0001494  58.2361 301.8804 15.73209114  7107,2022-045AL,52365,6727.869,91.533,350.739,348.729,0
GENERATED VIA SPACETRACK.ORG API,18 SPCS,52365,STARLINK-3874,PAYLOAD,U,22045AL,2022-05-29 13:26:27,221856,15.73190234,0.0002332,53.2142,289.3937,14.1977,345.9109,0,999,722,-3.9205e-05,-6.118e-05,0,3470801,0 STARLINK-3874,1 52365U 22045AL  22149.56003729 -.00006118  00000-0 -39205-4 0  9995,2 52365  53.2142 289.3937 0002332  14.1977 345.9109 15.73190234  7227,2022-045AL,52365,6727.923,91.534,351.357,348.219,0
GENERATED VIA SPACETRACK.ORG API,18 SPCS,52365,STARLINK-3874,PAYLOAD,U,22045AL,2022-05-29 19:32:21,917184,15.73203769,0.0001199,53.2143,288.1359,45.3703,314.7414,0,999,726,-1.4105e-05,-2.599e-05,0,3471362,0 STARLINK-3874,1 52365U 22045AL  22149.81414256 -.00002599  00000-0 -14105-4 0  9995,2 52365  53.2143 288.1359 0001199  45.3703 314.7414 15.73203769  7261,2022-045AL,52365,6727.884,91.533,350.556,348.943,0
GENERATED VIA SPACETRACK.ORG API,18 SPCS,52365,STARLINK-3874,PAYLOAD,U,22045AL,2022-05-29 20:00:01,224,15.73107824,0.0001575,53.2136,288.043,42.1459,66.7794,0,999,726,0.00012977,0.00017559,0,3471219,0 STARLINK-3874,1 52365U 22045AL  22149.83334491  .00017559  00000-0  12977-3 0  9993,2 52365  53.2136 288.0430 0001575  42.1459  66.7794 15.73107824  7263,2022-045AL,52365,6728.158,91.539,351.083,348.963,0
GENERATED VIA SPACETRACK.ORG API,18 SPCS,52365,STARLINK-3874,PAYLOAD,U,22045AL,2022-05-30 06:00:00,999648,15.73150509,0.0001385,53.2138,285.9787,47.4479,262.5076,0,999,732,0.00082665,0.00116772,0,3471821,0 STARLINK-3874,1 52365U 22045AL  22150.25001157  .00116772  00000-0  82665-3 0  9999,2 52365  53.2138 285.9787 0001385  47.4479 262.5076 15.73150509  7329,2022-045AL,52365,6728.036,91.536,350.833,348.969,0
GENERATED VIA SPACETRACK.ORG API,18 SPCS,52365,STARLINK-3874,PAYLOAD,U,22045AL,2022-05-30 10:47:11,832864,15.73189671,0.0001434,53.2147,284.9926,47.0959,313.0181,0,999,736,1.0542e-05,8.59e-06,0,3472358,0 STARLINK-3874,1 52365U 22045AL  22150.44944251  .00000859  00000-0  10542-4 0  9995,2 52365  53.2147 284.9926 0001434  47.0959 313.0181 15.73189671  7362,2022-045AL,52365,6727.925,91.534,350.754,348.825,0
GENERATED VIA SPACETRACK.ORG API,18 SPCS,52365,STARLINK-3874,PAYLOAD,U,22045AL,2022-05-30 14:00:01,224,15.73241719,0.0001524,53.2142,284.3307,40.9163,357.9358,0,999,130,-0.00016971,-0.00024412,0,3472495,0 STARLINK-3874,1 52365U 22045AL  22150.58334491 -.00024412  00000-0 -16971-3 0  9993,2 52365  53.2142 284.3307 0001524  40.9163 357.9358 15.73241719  1306,2022-045AL,52365,6727.776,91.531,350.667,348.616,0
GENERATED VIA SPACETRACK.ORG API,18 SPCS,52365,STARLINK-3874,PAYLOAD,U,22045AL,2022-05-30 22:00:00,999936,15.73213168,0.0001541,53.2138,282.6814,31.7069,96.1162,0,999,130,-8.4053e-06,-1.801e-05,0,3472994,0 STARLINK-3874,1 52365U 22045AL  22150.91667824 -.00001801  00000-0 -84053-5 0  9994,2 52365  53.2138 282.6814 0001541  31.7069  96.1162 15.73213168  1309,2022-045AL,52365,6727.858,91.532,350.759,348.686,0
GENERATED VIA SPACETRACK.ORG API,18 SPCS,52365,STARLINK-3874,PAYLOAD,U,22045AL,2022-05-31 04:00:00,999936,15.7319023,0.0001331,53.2141,281.4428,33.9083,70.6299,0,999,747,0.00055835,0.00078443,0,3473425,0 STARLINK-3874,1 52365U 22045AL  22151.16667824  .00078443  00000-0  55835-3 0  9990,2 52365  53.2141 281.4428 0001331  33.9083  70.6299 15.73190230  7474,2022-045AL,52365,6727.923,91.534,350.684,348.893,0
GENERATED VIA SPACETRACK.ORG API,18 SPCS,52365,STARLINK-3874,PAYLOAD,U,22045AL,2022-05-31 06:00:02,160,15.73198408,0.0001337,53.2139,281.0299,35.8713,180.967,0,999,130,0.00058267,0.0008195,0,3474118,0 STARLINK-3874,1 52365U 22045AL  22151.25002315  .00081950  00000-0  58267-3 0  9997,2 52365  53.2139 281.0299 0001337  35.8713 180.9670 15.73198408  1309,2022-045AL,52365,6727.9,91.533,350.664,348.865,0
GENERATED VIA SPACETRACK.ORG API,18 SPCS,52365,STARLINK-3874,PAYLOAD,U,22045AL,2022-05-31 12:42:21,377376,15.73213196,0.0001448,53.2152,279.6485,63.1545,296.9623,0,999,753,7.836e-05,0.00010397,0,3474045,0 STARLINK-3874,1 52365U 22045AL  22151.52941409  .00010397  00000-0  78360-4 0  9997,2 52365  53.2152 279.6485 0001448  63.1545 296.9623 15.73213196  7533,2022-045AL,52365,6727.858,91.532,350.697,348.748,0
GENERATED VIA SPACETRACK.ORG API,18 SPCS,52365,STARLINK-3874,PAYLOAD,U,22045AL,2022-05-31 22:00:00,999936,15.73241301,0.000171,53.2134,277.7328,32.2709,2.415,0,999,130,-4.7972e-05,-7.36e-05,0,3474670,0 STARLINK-3874,1 52365U 22045AL  22151.91667824 -.00007360  00000-0 -47972-4 0  9999,2 52365  53.2134 277.7328 0001710  32.2709   2.4150 15.73241301  1302,2022-045AL,52365,6727.777,91.531,350.793,348.492,0
GENERATED VIA SPACETRACK.ORG API,18 SPCS,52365,STARLINK-3874,PAYLOAD,U,22045AL,2022-06-01 10:03:04,326048,15.73207184,0.0001509,53.2146,275.2466,43.2405,316.8734,0,999,767,-1.3167e-06,-8.05e-06,0,3475533,0 STARLINK-3874,1 52365U 22045AL  22152.41880007 -.00000805  00000-0 -13167-5 0  9992,2 52365  53.2146 275.2466 0001509  43.2405 316.8734 15.73207184  7679,2022-045AL,52365,6727.875,91.533,350.755,348.724,0
